GLOBALSTAR M024         
1 25883U 99043A   25013.94575877 -.00000049  00000+0  56137-3 0  9992
2 25883  52.0054   8.6446 0001428 197.9874 173.6683 11.10166135 97737
GLOBALSTAR M027         
1 25884U 99043B   25013.53873957 -.00000015  00000+0  18604-2 0  9997
2 25884  52.0218  83.1629 0021833 102.9146 257.4087 11.04370597124159
GLOBALSTAR M054         
1 25885U 99043C   25013.80339133  .00000000  00000+0  18274-2 0  9997
2 25885  52.0108 235.7847 0004695 278.6359 208.0925 11.39215938101455
GLOBALSTAR M053         
1 25886U 99043D   25013.85980854 -.00000083  00000+0 -40685-3 0  9990
2 25886  51.9950 174.1779 0003932 159.3126 358.8399 11.27662522102035
GLOBALSTAR M058         
1 25907U 99049A   25013.75216683 -.00000082  00000+0  35124-4 0  9992
2 25907  51.9917 161.5553 0001505  21.5405 338.5492 11.93192154523102
GLOBALSTAR M050         
1 25908U 99049B   25013.84760220 -.00000124  00000+0 -40384-3 0  9995
2 25908  51.9961 180.5063 0010355  86.2064  61.6597 12.07447146129541
GLOBALSTAR M055         
1 25910U 99049D   25013.86680130 -.00000063  00000+0  26448-3 0  9997
2 25910  52.0026  81.2057 0007556 168.5833 191.5191 12.29418835149301
